start=new Date('2022-01-04T00:00:00.000Z').valueOf();
sats=[{"FILE":"3255250","PERIAPSIS":"386.613","EPHEMERIS_TYPE":"0","RCS_SIZE":"LARGE","ELEMENT_SET_NO":"999","MEAN_ANOMALY":"295.3888","MEAN_MOTION_DDOT":"0.0000000000000","REV_AT_EPOCH":"5101","SITE":"AFETR","INCLINATION":"53.0513","ARG_OF_PERICENTER":"64.7473","GP_ID":"192968631","CLASSIFICATION_TYPE":"U","MEAN_MOTION_DOT":"0.00024833","TLE_LINE2":"2 47605  53.0513  13.5041 0003375  64.7473 295.3888 15.59572131 51013","OBJECT_ID":"2021-009BK","BSTAR":"0.00031196000000","ECCENTRICITY":"0.00033750","TIME_SYSTEM":"UTC","OBJECT_NAME":"STARLINK-2023","MEAN_MOTION":"15.59572131","NORAD_CAT_ID":"47605","APOAPSIS":"391.180","LAUNCH_DATE":"2021-02-04","DECAY_DATE":null,"COUNTRY_CODE":"US","SEMIMAJOR_AXIS":"6767.031","OBJECT_TYPE":"PAYLOAD","EPOCH":"2022-01-03T07:29:11.718816","MEAN_ELEMENT_THEORY":"SGP4","PERIOD":"92.333","TLE_LINE1":"1 47605U 21009BK  22003.31194119  .00024833  00000-0  31196-3 0  9993","RA_OF_ASC_NODE":"13.5041","CENTER_NAME":"EARTH","REF_FRAME":"TEME"},{"FILE":"3255250","PERIAPSIS":"546.225","EPHEMERIS_TYPE":"0","RCS_SIZE":"LARGE","MEAN_ANOMALY":"283.1206","ELEMENT_SET_NO":"999","MEAN_MOTION_DDOT":"0.0000000000000","ARG_OF_PERICENTER":"76.9944","SITE":"AFETR","INCLINATION":"53.0580","REV_AT_EPOCH":"5087","MEAN_MOTION_DOT":"0.00001108","GP_ID":"192968882","CLASSIFICATION_TYPE":"U","OBJECT_ID":"2021-009BL","TLE_LINE2":"2 47606  53.0580  23.8968 0001448  76.9944 283.1206 15.06395219 50871","BSTAR":"0.00009325300000","ECCENTRICITY":"0.00014480","OBJECT_NAME":"STARLINK-2024","TIME_SYSTEM":"UTC","APOAPSIS":"548.231","NORAD_CAT_ID":"47606","MEAN_MOTION":"15.06395219","LAUNCH_DATE":"2021-02-04","DECAY_DATE":null,"COUNTRY_CODE":"US","SEMIMAJOR_AXIS":"6925.363","OBJECT_TYPE":"PAYLOAD","MEAN_ELEMENT_THEORY":"SGP4","EPOCH":"2022-01-03T06:53:16.590048","PERIOD":"95.592","RA_OF_ASC_NODE":"23.8968","TLE_LINE1":"1 47606U 21009BL  22003.28699757  .00001108  00000-0  93253-4 0  9991","CENTER_NAME":"EARTH","REF_FRAME":"TEME"},{"PERIOD":"95.592","MEAN_ELEMENT_THEORY":"SGP4","EPOCH":"2022-01-03T12:43:34.644576","OBJECT_TYPE":"PAYLOAD","SEMIMAJOR_AXIS":"6925.326","REF_FRAME":"TEME","CENTER_NAME":"EARTH","RA_OF_ASC_NODE":"22.8122","TLE_LINE1":"1 47607U 21009BM  22003.53026209  .00001335  00000-0  10851-3 0  9990","APOAPSIS":"548.170","NORAD_CAT_ID":"47607","MEAN_MOTION":"15.06407368","OBJECT_NAME":"STARLINK-2025","TIME_SYSTEM":"UTC","COUNTRY_CODE":"US","DECAY_DATE":null,"LAUNCH_DATE":"2021-02-04","OBJECT_ID":"2021-009BM","TLE_LINE2":"2 47607  53.0531  22.8122 0001413  73.7003 286.4141 15.06407368 50909","ECCENTRICITY":"0.00014130","BSTAR":"0.00010851000000","RCS_SIZE":"LARGE","EPHEMERIS_TYPE":"0","PERIAPSIS":"546.212","FILE":"3255250","GP_ID":"192969629","CLASSIFICATION_TYPE":"U","MEAN_MOTION_DOT":"0.00001335","ARG_OF_PERICENTER":"73.7003","SITE":"AFETR","REV_AT_EPOCH":"5090","INCLINATION":"53.0531","MEAN_MOTION_DDOT":"0.0000000000000","MEAN_ANOMALY":"286.4141","ELEMENT_SET_NO":"999"},{"CENTER_NAME":"EARTH","REF_FRAME":"TEME","RA_OF_ASC_NODE":"82.7417","TLE_LINE1":"1 47620U 21012A   22003.54685242  .00002974  00000-0  21855-3 0  9994","MEAN_ELEMENT_THEORY":"SGP4","EPOCH":"2022-01-03T13:07:28.049088","PERIOD":"95.593","SEMIMAJOR_AXIS":"6925.387","OBJECT_TYPE":"PAYLOAD","COUNTRY_CODE":"US","LAUNCH_DATE":"2021-02-16","DECAY_DATE":null,"APOAPSIS":"548.263","NORAD_CAT_ID":"47620","MEAN_MOTION":"15.06387539","OBJECT_NAME":"STARLINK-1528","TIME_SYSTEM":"UTC","BSTAR":"0.00021855000000","ECCENTRICITY":"0.00014600","OBJECT_ID":"2021-012A","TLE_LINE2":"2 47620  53.0563  82.7417 0001460  80.0655 280.0499 15.06387539 49953","ARG_OF_PERICENTER":"80.0655","SITE":"AFETR","REV_AT_EPOCH":"4995","INCLINATION":"53.0563","GP_ID":"192968883","CLASSIFICATION_TYPE":"U","MEAN_MOTION_DOT":"0.00002974","MEAN_ANOMALY":"280.0499","ELEMENT_SET_NO":"999","MEAN_MOTION_DDOT":"0.0000000000000","PERIAPSIS":"546.241","EPHEMERIS_TYPE":"0","RCS_SIZE":"LARGE","FILE":"3255250"},{"RA_OF_ASC_NODE":"83.0724","TLE_LINE1":"1 47621U 21012B   22003.47313127  .00000372  00000-0  43876-4 0  9995","CENTER_NAME":"EARTH","REF_FRAME":"TEME","SEMIMAJOR_AXIS":"6925.354","OBJECT_TYPE":"PAYLOAD","MEAN_ELEMENT_THEORY":"SGP4","EPOCH":"2022-01-03T11:21:18.541728","PERIOD":"95.592","LAUNCH_DATE":"2021-02-16","DECAY_DATE":null,"COUNTRY_CODE":"US","OBJECT_NAME":"STARLINK-1609","TIME_SYSTEM":"UTC","APOAPSIS":"548.113","NORAD_CAT_ID":"47621","MEAN_MOTION":"15.06398291","BSTAR":"0.00004387600000","ECCENTRICITY":"0.00012910","OBJECT_ID":"2021-012B","TLE_LINE2":"2 47621  53.0560  83.0724 0001291  76.2334 283.8799 15.06398291 49950","MEAN_ANOMALY":"283.8799","ELEMENT_SET_NO":"999","MEAN_MOTION_DDOT":"0.0000000000000","ARG_OF_PERICENTER":"76.2334","SITE":"AFETR","REV_AT_EPOCH":"4995","INCLINATION":"53.0560","CLASSIFICATION_TYPE":"U","GP_ID":"192969630","MEAN_MOTION_DOT":"0.00000372","FILE":"3255250","PERIAPSIS":"546.325","EPHEMERIS_TYPE":"0","RCS_SIZE":"LARGE"},{"GP_ID":"192967882","CLASSIFICATION_TYPE":"U","MEAN_MOTION_DOT":"0.00001193","ARG_OF_PERICENTER":"90.9416","INCLINATION":"53.0557","SITE":"AFETR","REV_AT_EPOCH":"4994","MEAN_MOTION_DDOT":"0.0000000000000","MEAN_ANOMALY":"269.1700","ELEMENT_SET_NO":"999","RCS_SIZE":"LARGE","EPHEMERIS_TYPE":"0","PERIAPSIS":"546.454","FILE":"3255250","ECCENTRICITY":"0.00011100","BSTAR":"0.00009895600000","OBJECT_ID":"2021-012C","TLE_LINE2":"2 47622  53.0557  83.0785 0001110  90.9416 269.1700 15.06396951 49947","COUNTRY_CODE":"US","DECAY_DATE":null,"LAUNCH_DATE":"2021-02-16","APOAPSIS":"547.992","NORAD_CAT_ID":"47622","MEAN_MOTION":"15.06396951","TIME_SYSTEM":"UTC","OBJECT_NAME":"STARLINK-1645","REF_FRAME":"TEME","CENTER_NAME":"EARTH","RA_OF_ASC_NODE":"83.0785","TLE_LINE1":"1 47622U 21012C   22003.46944850  .00001193  00000-0  98956-4 0  9999","PERIOD":"95.592","MEAN_ELEMENT_THEORY":"SGP4","EPOCH":"2022-01-03T11:16:00.350400","OBJECT_TYPE":"PAYLOAD","SEMIMAJOR_AXIS":"6925.358"},{"MEAN_MOTION":"15.06398697","APOAPSIS":"548.250","NORAD_CAT_ID":"47623","TIME_SYSTEM":"UTC","OBJECT_NAME":"STARLINK-1655","COUNTRY_CODE":"US","DECAY_DATE":null,"LAUNCH_DATE":"2021-02-16","PERIOD":"95.592","EPOCH":"2022-01-03T08:21:30.956544","MEAN_ELEMENT_THEORY":"SGP4","OBJECT_TYPE":"PAYLOAD","SEMIMAJOR_AXIS":"6925.353","REF_FRAME":"TEME","CENTER_NAME":"EARTH","TLE_LINE1":"1 47623U 21012D   22003.34827496  .00002745  00000-0  20312-3 0  9997","RA_OF_ASC_NODE":"18.6260","RCS_SIZE":"LARGE","EPHEMERIS_TYPE":"0","PERIAPSIS":"546.185","FILE":"3255250","MEAN_MOTION_DOT":"0.00002745","GP_ID":"192968132","CLASSIFICATION_TYPE":"U","SITE":"AFETR","REV_AT_EPOCH":"5084","INCLINATION":"53.0567","ARG_OF_PERICENTER":"69.5720","MEAN_MOTION_DDOT":"0.0000000000000","ELEMENT_SET_NO":"999","MEAN_ANOMALY":"290.5429","TLE_LINE2":"2 47623  53.0567  18.6260 0001491  69.5720 290.5429 15.06398697 50849","OBJECT_ID":"2021-012D","ECCENTRICITY":"0.00014910","BSTAR":"0.00020312000000"},{"MEAN_MOTION_DDOT":"0.0000000000000","MEAN_ANOMALY":"283.7126","ELEMENT_SET_NO":"999","GP_ID":"192969384","CLASSIFICATION_TYPE":"U","MEAN_MOTION_DOT":"0.00000231","ARG_OF_PERICENTER":"76.4025","INCLINATION":"53.0555","SITE":"AFETR","REV_AT_EPOCH":"5023","FILE":"3255250","EPHEMERIS_TYPE":"0","RCS_SIZE":"LARGE","PERIAPSIS":"546.179","ECCENTRICITY":"0.00014580","BSTAR":"0.00003437600000","OBJECT_ID":"2021-012E","TLE_LINE2":"2 47624  53.0555  63.3591 0001458  76.4025 283.7126 15.06408108 50239","DECAY_DATE":null,"LAUNCH_DATE":"2021-02-16","COUNTRY_CODE":"US","OBJECT_NAME":"STARLINK-1669","TIME_SYSTEM":"UTC","NORAD_CAT_ID":"47624","APOAPSIS":"548.198","MEAN_MOTION":"15.06408108","RA_OF_ASC_NODE":"63.3591","TLE_LINE1":"1 47624U 21012E   22003.40863154  .00000231  00000-0  34376-4 0  9990","REF_FRAME":"TEME","CENTER_NAME":"EARTH","OBJECT_TYPE":"PAYLOAD","SEMIMAJOR_AXIS":"6925.324","PERIOD":"95.592","MEAN_ELEMENT_THEORY":"SGP4","EPOCH":"2022-01-03T09:48:25.765056"},{"EPOCH":"2022-01-03T14:37:41.807424","MEAN_ELEMENT_THEORY":"SGP4","PERIOD":"95.592","SEMIMAJOR_AXIS":"6925.321","OBJECT_TYPE":"PAYLOAD","CENTER_NAME":"EARTH","REF_FRAME":"TEME","TLE_LINE1":"1 47625U 21012F   22003.60951166 -.00000556  00000-0 -18448-4 0  9998","RA_OF_ASC_NODE":"82.4585","MEAN_MOTION":"15.06409137","APOAPSIS":"548.096","NORAD_CAT_ID":"47625","OBJECT_NAME":"STARLINK-1704","TIME_SYSTEM":"UTC","COUNTRY_CODE":"US","LAUNCH_DATE":"2021-02-16","DECAY_DATE":null,"TLE_LINE2":"2 47625  53.0554  82.4585 0001314  92.4075 267.7064 15.06409137 49962","OBJECT_ID":"2021-012F","BSTAR":"-0.00001844800000","ECCENTRICITY":"0.00013140","PERIAPSIS":"546.276","EPHEMERIS_TYPE":"0","RCS_SIZE":"LARGE","FILE":"3256498","INCLINATION":"53.0554","SITE":"AFETR","REV_AT_EPOCH":"4996","ARG_OF_PERICENTER":"92.4075","GP_ID":"193016838","MEAN_MOTION_DOT":"-0.00000556","CLASSIFICATION_TYPE":"U","ELEMENT_SET_NO":"999","MEAN_ANOMALY":"267.7064","MEAN_MOTION_DDOT":"0.0000000000000"},{"DECAY_DATE":null,"LAUNCH_DATE":"2021-02-16","COUNTRY_CODE":"US","TIME_SYSTEM":"UTC","OBJECT_NAME":"STARLINK-1761","MEAN_MOTION":"15.06382831","APOAPSIS":"548.610","NORAD_CAT_ID":"47626","TLE_LINE1":"1 47626U 21012G   22003.46207857  .00002837  00000-0  20937-3 0  9991","RA_OF_ASC_NODE":"83.1099","REF_FRAME":"TEME","CENTER_NAME":"EARTH","OBJECT_TYPE":"PAYLOAD","SEMIMAJOR_AXIS":"6925.401","PERIOD":"95.593","EPOCH":"2022-01-03T11:05:23.588448","MEAN_ELEMENT_THEORY":"SGP4","MEAN_MOTION_DDOT":"0.0000000000000","ELEMENT_SET_NO":"999","MEAN_ANOMALY":"265.6115","GP_ID":"192968383","CLASSIFICATION_TYPE":"U","MEAN_MOTION_DOT":"0.00002837","SITE":"AFETR","REV_AT_EPOCH":"4994","INCLINATION":"53.0574","ARG_OF_PERICENTER":"94.5096","FILE":"3255250","RCS_SIZE":"LARGE","EPHEMERIS_TYPE":"0","PERIAPSIS":"545.922","ECCENTRICITY":"0.00019410","BSTAR":"0.00020937000000","TLE_LINE2":"2 47626  53.0574  83.1099 0001941  94.5096 265.6115 15.06382831 49948","OBJECT_ID":"2021-012G"}];
